[{"OBJECT_NAME":"STARLINK-30872","OBJECT_ID":"2023-170V","EPOCH":"2026-03-09T23:40:20.980416","MEAN_MOTION":15.27564688,"ECCENTRICITY":0.00015487,"INCLINATION":43.0032,"RA_OF_ASC_NODE":50.6306,"ARG_OF_PERICENTER":279.0718,"MEAN_ANOMALY":80.9959,"EPHEMERIS_TYPE":0,"CLASSIFICATION_TYPE":"U","NORAD_CAT_ID":58225,"ELEMENT_SET_NO":999,"REV_AT_EPOCH":13201,"BSTAR":0.0001032739,"MEAN_MOTION_DOT":2.579e-5,"MEAN_MOTION_DDOT":0},{"OBJECT_NAME":"KUIPER-00276","OBJECT_ID":"2026-030AG","EPOCH":"2026-03-09T22:00:01.999584","MEAN_MOTION":15.30162454,"ECCENTRICITY":0.00186471,"INCLINATION":51.8824,"RA_OF_ASC_NODE":218.7283,"ARG_OF_PERICENTER":66.9346,"MEAN_ANOMALY":101.1527,"EPHEMERIS_TYPE":0,"CLASSIFICATION_TYPE":"U","NORAD_CAT_ID":67794,"ELEMENT_SET_NO":999,"REV_AT_EPOCH":482,"BSTAR":0.0021152378,"MEAN_MOTION_DOT":0.00063116,"MEAN_MOTION_DDOT":0}]
